NORAD_CAT_ID,EPOCH,MEAN_MOTION,ECCENTRICITY,INCLINATION,RA_OF_ASC_NODE,ARG_OF_PERICENTER,MEAN_ANOMALY,SEMIMAJOR_AXIS,PERIOD,APOGEE,PERIGEE
88854,2019-11-24 05:25:00,15.019143,0.0,97.736,62.626999999999995,0.0,234.702,6939.130783,95.87799999999999,560.993783,560.993783
88854,2019-11-24 11:52:00,15.019143,0.0,97.73700000000001,62.891999999999996,0.0,245.953,6939.130783,95.87799999999999,560.993783,560.993783
88854,2019-11-24 19:31:00,15.019143,0.0,97.73700000000001,63.206,0.0,167.203,6939.130783,95.87799999999999,560.993783,560.993783
88854,2019-11-25 06:50:00,15.019143,0.0,97.73700000000001,63.67100000000001,0.0,193.454,6939.130783,95.87799999999999,560.993783,560.993783
88854,2019-11-25 12:00:00,15.019143,0.0,97.738,63.88399999999999,0.0,275.954,6939.130783,95.87799999999999,560.993783,560.993783
88854,2019-11-25 19:56:00,15.019143,0.0,97.738,64.209,0.0,260.955,6939.130783,95.87799999999999,560.993783,560.993783
88854,2019-11-26 04:59:00,15.019143,0.0,97.738,64.581,0.0,137.20600000000002,6939.130783,95.87799999999999,560.993783,560.993783
88854,2019-11-26 11:40:00,15.019143,0.0,97.738,64.85600000000001,0.0,200.956,6939.130783,95.87799999999999,560.993783,560.993783
88854,2019-11-26 19:54:00,15.019143,0.0,97.73899999999999,65.194,0.0,253.457,6939.130783,95.87799999999999,560.993783,560.993783
88854,2019-11-27 05:58:00,15.019143,0.0,97.73899999999999,65.607,0.0,358.457,6939.130783,95.87799999999999,560.993783,560.993783
88854,2019-11-27 12:28:00,15.019143,0.0,97.73899999999999,65.874,0.0,20.958000000000002,6939.130783,95.87799999999999,560.993783,560.993783
88854,2019-11-27 20:37:00,15.019143,0.0,97.73899999999999,66.209,0.0,54.708999999999996,6939.130783,95.87799999999999,560.993783,560.993783
88854,2019-11-28 04:30:00,15.019143,0.0,97.74,66.533,0.0,28.459,6939.130783,95.87799999999999,560.993783,560.993783
88854,2019-11-28 14:21:00,15.019143,0.0,97.74,66.938,0.0,84.71,6939.130783,95.87799999999999,560.993783,560.993783
88854,2019-11-28 21:30:00,15.019143,0.0,97.74,67.23100000000001,0.0,253.46,6939.130783,95.87799999999999,560.993783,560.993783
88920,2019-11-27 22:00:00,14.19358679,0.0035678,98.8932,307.099,194.1567,192.953,7205.659,101.454,853.232,801.816
89063,2019-11-24 10:57:00,0.96063299,0.0011197,11.87,30.2727,1.2275,1.887,43387.388,1499.011,37057.834,36960.672
89063,2019-11-25 12:43:00,0.96063218,0.0011217,11.871,30.2652,1.0751,13.3215,43387.412,1499.012,37057.945,36960.61
89063,2019-11-26 12:49:00,0.96062956,0.0011234,11.8719,30.2581,0.909,0.8727,43387.491,1499.016,37058.098,36960.615
89063,2019-11-27 12:49:00,0.96062503,0.0011257,11.8728,30.2511,0.6755,346.8269,43387.628,1499.024,37058.334,36960.651
89063,2019-11-28 14:35:00,0.96062025,0.0011276,11.8738,30.2435,0.4464,358.318,43387.772,1499.031,37058.561,36960.712
89088,2019-11-27 18:17:00,1.00262396,0.0022633,11.5568,327.9573,179.3337,17.2599,42167.364,1436.231,35884.666,35693.791
89161,2019-11-25 12:42:00,13.89533932,0.0044906,82.9444,317.2098,205.2215,154.6757,7308.401,103.631,963.085,897.447
89161,2019-11-26 12:53:00,13.89534135,0.0044982,82.9444,316.4444,202.2975,157.6235,7308.4,103.631,963.14,897.391
89210,2019-11-26 14:23:00,14.06311824,0.0072702,98.9467,358.9007,17.7743,140.7602,7250.157,102.395,924.732,819.312
89343,2019-11-22 22:22:00,14.10756422,0.0053977,98.7417,213.5952,264.1541,95.3476,7234.921,102.072,895.838,817.734
89343,2019-11-24 22:02:00,14.10759008,0.0053778,98.7418,215.5279,258.4979,101.015,7234.912,102.072,895.685,817.869
89343,2019-11-26 21:41:00,14.10761344,0.005358,98.7418,217.4604,252.7997,106.7304,7234.904,102.072,895.534,818.004
89384,2019-11-23 22:24:00,14.2866616,0.0078989,99.207,25.1062,27.3224,333.2076,7174.329,100.793,852.864,739.525
89420,2019-11-24 15:06:00,14.23892789,0.0018618,66.589,32.1791,58.4337,92.9242,7190.354,101.131,825.606,798.832
89555,2019-11-25 13:36:00,14.32822412,0.0024386,74.0296,333.1082,320.1087,39.8271,7160.449,100.5,799.775,764.852
89581,2019-11-21 21:30:00,15.019143,0.0,97.671,163.209,0.0,3.321,6939.130783,95.87799999999999,560.993783,560.993783
89581,2019-11-22 03:38:00,15.357644,0.0006360000000000001,97.67,163.476,179.47400000000002,150.855,6836.787881,93.764,462.99616900000007,454.305592
89581,2019-11-22 12:18:00,15.345748,0.0009289999999999999,97.66799999999999,163.85,137.774,28.592,6840.320848,93.837,468.53926500000006,455.82843099999997
89581,2019-11-22 21:54:00,15.365676,0.00024900000000000004,97.67200000000001,164.25799999999998,55.986999999999995,161.42600000000002,6834.405145000001,93.715,457.96737,454.56892
89581,2019-11-23 05:55:00,15.405589,0.002134,97.679,164.608,94.04700000000001,169.61900000000003,6822.595733,93.473,459.020201,429.897266
89581,2019-11-23 14:19:00,15.366614000000002,0.0011279999999999999,97.667,164.97,155.384,242.93099999999998,6834.127225,93.71,463.697613,448.28283799999997
89581,2019-11-23 22:51:00,15.352288,0.000455,97.666,165.33900000000003,179.908,23.715,6838.377987999999,93.79700000000001,463.35583499999996,457.126141
89581,2019-11-24 03:54:00,15.400841,0.0021969999999999997,97.67299999999999,165.563,122.944,163.657,6823.997822,93.501,460.851599,430.870046
89581,2019-11-24 12:25:00,15.406134,0.0015630000000000002,97.67299999999999,165.93,247.482,200.655,6822.43489,93.469,454.96025499999996,433.635525
89581,2019-11-24 22:10:00,15.343283,0.001112,97.663,166.354,150.332,23.331999999999997,6841.053462999999,93.852,470.521525,455.311401
89581,2019-11-25 06:26:00,15.405273999999999,0.002348,97.67399999999999,166.71099999999998,112.81700000000001,164.75,6822.688711,93.47399999999999,460.571084,428.532339
89581,2019-11-25 15:00:00,15.406336999999999,0.001478,97.67,167.083,249.942,200.66099999999997,6822.374749,93.46799999999999,454.32359299999996,434.151905
89581,2019-11-25 23:00:00,15.376693,0.00032900000000000003,97.665,167.433,37.425,95.64299999999999,6831.140337000001,93.648,455.251621,450.75505300000003
89581,2019-11-26 06:35:00,15.404257999999999,0.001639,97.67200000000001,167.753,228.56400000000002,211.12400000000002,6822.988788,93.48100000000001,456.033317,433.670259
89581,2019-11-26 14:17:00,15.383251000000001,0.001537,97.663,168.085,182.239,230.912,6829.198912999999,93.60799999999999,461.561151,440.56267599999995
89581,2019-11-26 21:40:00,15.376407,0.001602,97.665,168.41400000000002,155.628,157.909,6831.225043,93.65,464.029833,442.146254
89581,2019-11-27 03:36:00,15.390856,0.001394,97.665,168.66,75.641,164.535,6826.9489920000005,93.56200000000001,458.331371,439.292613
89581,2019-11-27 13:47:00,15.3955,0.0016820000000000001,97.663,169.104,202.81599999999997,222.75900000000001,6825.576087,93.53399999999999,458.923001,435.95517300000006
89581,2019-11-27 22:52:00,15.342589000000002,0.00048600000000000005,97.656,169.5,112.33,245.25,6841.259759999999,93.85600000000001,466.445634,459.799887
89581,2019-11-28 07:09:00,15.402503,0.001006,97.667,169.86,267.83,197.519,6823.506983,93.491,452.23560499999996,438.504361
89581,2019-11-28 14:55:00,15.406409,0.0013390000000000001,97.664,170.197,249.15200000000002,205.02700000000002,6822.353715,93.46799999999999,453.349705,435.083725
89581,2019-11-28 21:30:00,15.344685,0.001338,97.656,170.481,145.357,25.089000000000002,6840.63668,93.844,471.653562,453.34579699999995
89600,2019-11-24 15:11:00,14.32176756,0.0085325,71.3622,18.8719,60.713,101.3335,7162.601,100.546,845.58,723.351
89601,2019-11-23 09:51:00,14.34218892,0.0002304,86.399,68.1608,106.9523,253.1925,7155.8,100.403,779.314,776.016
89601,2019-11-24 09:17:00,14.34219037,0.0002324,86.3991,67.7528,106.4629,253.6823,7155.799,100.403,779.327,776.001
89659,2019-11-24 12:31:00,0.99319071,0.0010672,12.2066,30.5572,246.1907,109.3528,42433.944,1449.872,36101.095,36010.524
89659,2019-11-26 12:44:00,0.99318153,0.0010731,12.2083,30.5402,246.6529,107.1361,42434.206,1449.886,36101.607,36010.535
89699,2019-11-25 21:10:00,2.32556498,0.7036904,6.749,294.0804,72.2961,31.123,24064.833,619.204,34620.89,752.506
89744,2019-11-27 22:09:00,12.50225924,0.0040121,101.5515,325.0283,69.7645,322.6138,7841.687,115.179,1495.013,1432.09
89783,2019-11-26 14:15:00,14.27275534,0.0363804,99.1687,195.5155,270.6931,85.2585,7178.989,100.891,1062.028,539.679
89803,2019-11-25 14:14:00,14.30085816,0.014889,98.0597,182.8074,111.9079,249.801,7169.58,100.693,898.193,684.698
89880,2019-11-24 14:25:00,14.30646862,0.024401,98.7114,359.3638,171.7018,321.1387,7167.706,100.653,964.47,614.672
89901,2019-11-25 13:58:00,14.35833953,0.0015411,86.3919,67.9895,317.1515,101.1086,7150.433,100.29,783.317,761.278
89904,2019-11-26 21:07:00,0.98698308,0.0007685,8.1913,46.9883,275.1771,206.6889,42611.684,1458.991,36266.296,36200.802
89927,2019-11-23 22:23:00,12.27067667,0.0077313,102.1631,296.0443,181.8425,242.7899,7940.042,117.352,1623.294,1500.52
89948,2019-11-24 12:56:00,1.8649886,0.0023999,55.724,332.3921,162.5629,18.4533,27879.461,772.122,21568.234,21434.418
89948,2019-11-25 15:31:00,1.86498836,0.0023973,55.7234,332.3544,162.5699,41.9503,27879.464,772.122,21568.164,21434.493
90062,2019-11-24 22:27:00,14.07210634,0.0049808,98.8776,315.157,318.4241,41.3145,7247.069,102.33,905.03,832.838
90063,2019-11-25 13:46:00,14.79871806,0.000955,74.0347,56.0595,117.3404,242.8745,7007.865,97.305,636.423,623.038
90063,2019-11-26 22:12:00,14.79879287,0.0009391,74.0345,53.3965,114.0148,246.2012,7007.842,97.305,636.288,623.126
90086,2019-11-22 22:22:00,12.73904104,0.0045275,82.6153,129.9494,234.5277,247.9642,7744.214,113.038,1401.141,1331.017
90089,2019-11-26 22:32:00,14.61853207,0.0263044,98.5337,318.5947,313.9048,71.4484,7065.333,98.505,873.047,501.349
90196,2019-11-24 21:47:00,14.19330768,0.0046367,99.1251,115.5661,310.4254,49.288,7205.753,101.456,861.029,794.208
90264,2019-11-22 22:24:00,14.26177748,0.0095815,99.0731,123.0563,209.7999,149.7703,7182.672,100.969,873.358,735.716
90273,2019-11-27 21:17:00,14.98729701,0.0033506,97.7241,267.4404,220.6222,139.25,6948.957,96.081,594.105,547.538
90297,2019-11-27 22:10:00,14.11056694,0.0145713,98.5673,130.6007,247.8926,110.6722,7233.894,102.051,961.167,750.352
